FGRST (GLAST)
1 33053U 08029A   26119.31189796  .00003498  00000+0  12797-3 0  9998
2 33053  25.5811 183.7759 0008687 109.1657 250.9821 15.23681143988372
